NORAD_CAT_ID,OBJECT_NAME,OBJECT_TYPE,EPOCH,MEAN_MOTION,ECCENTRICITY,INCLINATION,RA_OF_ASC_NODE,ARG_OF_PERICENTER,MEAN_ANOMALY,BSTAR,MEAN_MOTION_DOT,MEAN_MOTION_DDOT,TLE_LINE0,TLE_LINE1,TLE_LINE2,SEMIMAJOR_AXIS,PERIOD,APOGEE,PERIGEE,DECAYED
55940.0,STARLINK-5864,PAYLOAD,2023-09-05 11:57:00,14.9833144,0.0003027,70.0002,74.493,270.0516,90.0296,-1.3026e-07,-9.5e-07,0.0,0 STARLINK-5864,1 55940U 23037AC  23248.49792466 -.00000095  00000-0 -13026-6 0  9998,2 55940  70.0002  74.4930 0003027 270.0516  90.0296 14.98331440 27084,6950.188,96.107,574.157,569.95,0.0
55940.0,STARLINK-5864,PAYLOAD,2023-09-06 11:59:01,14.98330034,0.0003097,70.0001,71.968,270.6858,89.3946,4.2127e-05,4.1e-06,0.0,0 STARLINK-5864,1 55940U 23037AC  23249.49932314  .00000410  00000-0  42127-4 0  9998,2 55940  70.0001  71.9680 0003097 270.6858  89.3946 14.98330034 27237,6950.193,96.107,574.21,569.905,0.0
55940.0,STARLINK-5864,PAYLOAD,2023-09-06 18:23:33,14.98330732,0.0003162,70.0,71.2947,270.6325,89.4472,3.4165e-05,3.15e-06,0.0,0 STARLINK-5864,1 55940U 23037AC  23249.76636269  .00000315  00000-0  34165-4 0  9995,2 55940  70.0000  71.2947 0003162 270.6325  89.4472 14.98330732 26933,6950.191,96.107,574.253,569.858,0.0
55940.0,STARLINK-5864,PAYLOAD,2023-09-07 12:01:02,14.98327829,0.0003101,70.0002,69.4433,270.2287,89.8517,-3.4123e-05,-5e-06,0.0,0 STARLINK-5864,1 55940U 23037AC  23250.50072663 -.00000500  00000-0 -34123-4 0  9993,2 55940  70.0002  69.4433 0003101 270.2287  89.8517 14.98327829 27040,6950.2,96.107,574.22,569.909,0.0
55940.0,STARLINK-5864,PAYLOAD,2023-09-07 21:37:51,14.98328227,0.0003163,70.0001,68.433,269.6473,90.4324,-3.7764e-05,-5.44e-06,0.0,0 STARLINK-5864,1 55940U 23037AC  23250.90128670 -.00000544  00000-0 -37764-4 0  9999,2 55940  70.0001  68.4330 0003163 269.6473  90.4324 14.98328227 27105,6950.198,96.107,574.262,569.865,0.0
55940.0,STARLINK-5864,PAYLOAD,2023-09-08 13:39:11,14.98329956,0.0003268,69.9991,66.7482,267.2903,92.7882,-1.3475e-06,-1.09e-06,0.0,0 STARLINK-5864,1 55940U 23037AC  23251.56888397 -.00000109  00000-0 -13475-5 0  9992,2 55940  69.9991  66.7482 0003268 267.2903  92.7882 14.98329956 27202,6950.193,96.107,574.329,569.787,0.0
55940.0,STARLINK-5864,PAYLOAD,2023-09-08 18:27:35,14.98330533,0.0003236,70.0,66.2441,268.4823,91.5965,1.5536e-06,-7.4e-07,0.0,0 STARLINK-5864,1 55940U 23037AC  23251.76916370 -.00000074  00000-0  15536-5 0  9997,2 55940  70.0000  66.2441 0003236 268.4823  91.5965 14.98330533 27577,6950.191,96.107,574.305,569.807,0.0
55940.0,STARLINK-5864,PAYLOAD,2023-09-09 13:41:12,14.98330111,0.0003145,70.0002,64.2239,269.7271,90.3527,3.2691e-05,2.97e-06,0.0,0 STARLINK-5864,1 55940U 23037AC  23252.57028198  .00000297  00000-0  32691-4 0  9995,2 55940  70.0002  64.2239 0003145 269.7271  90.3527 14.98330111 27351,6950.193,96.107,574.243,569.872,0.0
55940.0,STARLINK-5864,PAYLOAD,2023-09-09 18:29:35,14.98362884,0.0002937,70.0003,63.7195,271.3951,88.6871,-0.00043709,-5.309e-05,0.0,0 STARLINK-5864,1 55940U 23037AC  23252.77055296 -.00005309  00000-0 -43709-3 0  9998,2 55940  70.0003  63.7195 0002937 271.3951  88.6871 14.98362884 27724,6950.091,96.105,573.997,569.915,0.0
55940.0,STARLINK-5864,PAYLOAD,2023-09-09 21:41:52,14.98334126,0.0003034,70.0004,63.3829,270.6333,89.4479,8.8634e-05,9.65e-06,0.0,0 STARLINK-5864,1 55940U 23037AC  23252.90407773  .00000965  00000-0  88634-4 0  9992,2 55940  70.0004  63.3829 0003034 270.6333  89.4479 14.98334126 27743,6950.18,96.107,574.154,569.936,0.0
55940.0,STARLINK-5864,PAYLOAD,2023-09-10 10:30:57,14.98330254,0.0003089,70.0005,62.0363,269.5036,90.5769,-1.2682e-05,-2.44e-06,0.0,0 STARLINK-5864,1 55940U 23037AC  23253.43816169 -.00000244  00000-0 -12682-4 0  9996,2 55940  70.0005  62.0363 0003089 269.5036  90.5769 14.98330254 27822,6950.192,96.107,574.204,569.91,0.0
55940.0,STARLINK-5864,PAYLOAD,2023-09-10 13:43:13,14.98330408,0.0003052,70.0006,61.6997,268.978,91.1029,-6.476e-06,-1.7e-06,0.0,0 STARLINK-5864,1 55940U 23037AC  23253.57168127 -.00000170  00000-0 -64760-5 0  9998,2 55940  70.0006  61.6997 0003052 268.9780  91.1029 14.98330408 27502,6950.192,96.107,574.178,569.935,0.0
55940.0,STARLINK-5864,PAYLOAD,2023-09-11 13:45:14,14.98328253,0.0002968,70.0011,59.1753,266.4437,93.6383,-2.7134e-05,-4.17e-06,0.0,0 STARLINK-5864,1 55940U 23037AC  23254.57308226 -.00000417  00000-0 -27134-4 0  9992,2 55940  70.0011  59.1753 0002968 266.4437  93.6383 14.98328253 27658,6950.198,96.107,574.126,570.0,0.0
55940.0,STARLINK-5864,PAYLOAD,2023-09-11 16:57:30,14.98328304,0.0002875,70.0012,58.8385,265.0913,94.9918,-2.206e-05,-3.56e-06,0.0,0 STARLINK-5864,1 55940U 23037AC  23254.70660220 -.00000356  00000-0 -22060-4 0  9997,2 55940  70.0012  58.8385 0002875 265.0913  94.9918 14.98328304 28013,6950.198,96.107,574.061,570.065,0.0
55940.0,STARLINK-5864,PAYLOAD,2023-09-12 13:47:15,14.98326645,0.0003014,70.001,56.6507,268.6378,91.4436,-2.5105e-05,-3.92e-06,0.0,0 STARLINK-5864,1 55940U 23037AC  23255.57448377 -.00000392  00000-0 -25105-4 0  9993,2 55940  70.0010  56.6507 0003014 268.6378  91.4436 14.98326645 27802,6950.203,96.107,574.163,569.973,0.0
55940.0,STARLINK-5864,PAYLOAD,2023-09-12 16:59:31,14.98326289,0.0002963,70.001,56.3138,268.5578,91.5241,-2.9375e-05,-4.43e-06,0.0,0 STARLINK-5864,1 55940U 23037AC  23255.70800443 -.00000443  00000-0 -29375-4 0  9994,2 55940  70.0010  56.3138 0002963 268.5578  91.5241 14.98326289 28161,6950.204,96.107,574.129,570.01,0.0
55940.0,STARLINK-5864,PAYLOAD,2023-09-12 20:11:47,14.9832821,0.0002915,70.0012,55.9774,268.1805,91.9021,-1.5262e-06,-1.11e-06,0.0,0 STARLINK-5864,1 55940U 23037AC  23255.84152267 -.00000111  00000-0 -15262-5 0  9996,2 55940  70.0012  55.9774 0002915 268.1805  91.9021 14.98328210 27840,6950.198,96.107,574.089,570.037,0.0
55940.0,STARLINK-5864,PAYLOAD,2023-09-13 10:36:59,14.98334256,0.0003016,70.001,54.4621,269.3377,90.7437,7.2313e-05,7.7e-06,0.0,0 STARLINK-5864,1 55940U 23037AC  23256.44235627  .00000770  00000-0  72313-4 0  9993,2 55940  70.0010  54.4621 0003016 269.3377  90.7437 14.98334256 28276,6950.18,96.107,574.141,569.949,0.0
55940.0,STARLINK-5864,PAYLOAD,2023-09-13 13:49:15,14.98334081,0.0003075,70.001,54.1254,269.148,90.9327,8.418e-05,9.12e-06,0.0,0 STARLINK-5864,1 55940U 23037AC  23256.57587548  .00000912  00000-0  84180-4 0  9992,2 55940  70.0010  54.1254 0003075 269.1480  90.9327 14.98334081 27953,6950.18,96.107,574.182,569.908,0.0
55940.0,STARLINK-5864,PAYLOAD,2023-09-13 20:13:47,14.9833713,0.0003058,70.001,53.4522,269.1574,90.9235,0.00011241,1.249e-05,0.0,0 STARLINK-5864,1 55940U 23037AC  23256.84291180  .00001249  00000-0  11241-3 0  9997,2 55940  70.0010  53.4522 0003058 269.1574  90.9235 14.98337130 27998,6950.171,96.107,574.161,569.91,0.0
55940.0,STARLINK-5864,PAYLOAD,2023-09-14 10:39:01,14.98319971,0.0002945,70.0015,51.9377,269.6792,90.403,-8.4337e-05,-1.099e-05,0.0,0 STARLINK-5864,1 55940U 23037AC  23257.44376844 -.00001099  00000-0 -84337-4 0  9997,2 55940  70.0015  51.9377 0002945 269.6792  90.4030 14.98319971 28425,6950.224,96.108,574.136,570.042,0.0
55940.0,STARLINK-5864,PAYLOAD,2023-09-14 12:15:09,14.98319119,0.0002952,70.0015,51.7694,269.6842,90.3979,-9.2531e-05,-1.197e-05,0.0,0 STARLINK-5864,1 55940U 23037AC  23257.51052953 -.00001197  00000-0 -92531-4 0  9991,2 55940  70.0015  51.7694 0002952 269.6842  90.3979 14.98319119 28097,6950.227,96.108,574.143,570.04,0.0
55940.0,STARLINK-5864,PAYLOAD,2023-09-14 20:15:49,14.98322798,0.0003195,70.0009,50.9271,268.2548,91.8245,-6.5718e-05,-8.77e-06,0.0,0 STARLINK-5864,1 55940U 23037AC  23257.84432766 -.00000877  00000-0 -65718-4 0  9992,2 55940  70.0009  50.9271 0003195 268.2548  91.8245 14.98322798 28145,6950.215,96.107,574.301,569.86,0.0
55940.0,STARLINK-5864,PAYLOAD,2023-09-15 10:41:02,14.98331888,0.0003233,70.0005,49.411,268.352,91.7269,-5.7836e-05,-7.83e-06,0.0,0 STARLINK-5864,1 55940U 23037AC  23258.44516241 -.00000783  00000-0 -57836-4 0  9998,2 55940  70.0005  49.4110 0003233 268.3520  91.7269 14.98331888 28572,6950.187,96.107,574.299,569.805,0.0
55940.0,STARLINK-5864,PAYLOAD,2023-09-15 13:53:18,14.98333076,0.0003153,70.0008,49.075,266.3728,93.707,-3.9632e-05,-5.66e-06,0.0,0 STARLINK-5864,1 55940U 23037AC  23258.57868098 -.00000566  00000-0 -39632-4 0  9995,2 55940  70.0008  49.0750 0003153 266.3728  93.7070 14.98333076 28258,6950.183,96.107,574.24,569.857,0.0
55940.0,STARLINK-5864,PAYLOAD,2023-09-15 20:17:49,14.98337775,0.0003208,70.001,48.4021,268.507,91.5721,-3.0188e-06,-1.29e-06,0.0,0 STARLINK-5864,1 55940U 23037AC  23258.84571631 -.00000129  00000-0 -30188-5 0  9992,2 55940  70.0010  48.4021 0003208 268.5070  91.5721 14.98337775 28631,6950.169,96.107,574.263,569.804,0.0
55940.0,STARLINK-5864,PAYLOAD,2023-09-16 13:55:18,14.98325936,0.0003168,70.0012,46.5508,266.6501,93.4296,0.00011887,1.325e-05,0.0,0 STARLINK-5864,1 55940U 23037AC  23259.58008012  .00001325  00000-0  11887-3 0  9992,2 55940  70.0012  46.5508 0003168 266.6501  93.4296 14.98325936 28404,6950.205,96.107,574.272,569.869,0.0
55940.0,STARLINK-5864,PAYLOAD,2023-09-16 17:07:34,14.98327661,0.0003141,70.0013,46.2143,266.3921,93.6879,0.00013107,1.471e-05,0.0,0 STARLINK-5864,1 55940U 23037AC  23259.71359890  .00001471  00000-0  13107-3 0  9999,2 55940  70.0013  46.2143 0003141 266.3921  93.6879 14.98327661 28766,6950.2,96.107,574.248,569.882,0.0
55940.0,STARLINK-5864,PAYLOAD,2023-09-17 12:21:12,14.98329616,0.0003011,70.0018,44.1945,267.1739,92.9076,-5.1353e-05,-7.06e-06,0.0,0 STARLINK-5864,1 55940U 23037AC  23260.51472295 -.00000706  00000-0 -51353-4 0  9992,2 55940  70.0018  44.1945 0003011 267.1739  92.9076 14.98329616 28549,6950.194,96.107,574.152,569.966,0.0
55940.0,STARLINK-5864,PAYLOAD,2023-09-17 17:09:36,14.98330666,0.0002992,70.0019,43.6896,267.328,92.7536,-3.5942e-05,-5.22e-06,0.0,0 STARLINK-5864,1 55940U 23037AC  23260.71500177 -.00000522  00000-0 -35942-4 0  9997,2 55940  70.0019  43.6896 0002992 267.3280  92.7536 14.98330666 28916,6950.191,96.107,574.135,569.976,0.0
